#cP2024  2 11  6  0  0.00000000     577 d+D   IGS20 EXT AIUB
## 2301  21600.00000000   300.00000000 60351 0.2500000000000
+   77   G02G03G04G05G06G07G08G09G10G11G12G13G14G15G16G17G18
+        G19G20G21G22G23G24G25G26G27G28G29G30G31G32R01R02R03
+        R04R05R07R08R09R11R12R13R14R15R16R17R18R19R20R21R22
+        R24E02E03E04E05E07E08E09E10E11E12E13E14E15E18E19E21
+        E24E25E26E27E30E31E33E34E36  0  0  0  0  0  0  0  0
++         7  6  7  7  7  7  6  6  6  7  7  6  6  6  7  7  7
++         7  7  7  7  6  7  5  6  6  6  7  5  7  6  9  7  8
++         8  7  8  8  7  6  6  6  6  6  7  8  7  9  9  8  7
++         8  5  6  7  7  7  6  7  7  7  7  7  6  7  7  7  6
++         7  6  7  6  5  5  7  6  7  0  0  0  0  0  0  0  0
%c M  cc GPS ccc cccc cccc cccc cccc ccccc ccccc ccccc ccccc
%c cc cc ccc ccc cccc cccc cccc cccc ccccc ccccc ccccc ccccc
%f  1.2500000  1.025000000  0.00000000000  0.000000000000000
%f  0.0000000  0.000000000  0.00000000000  0.000000000000000
%i    0    0    0    0      0      0      0      0         0
%i    0    0    0    0      0      0      0      0         0
/* Center for Orbit Determination in Europe (CODE)          
/* Ultra-rapid GRE orbits starting year-day 24042 06 hour   
/* Observed/predicted: 25/23 hours (data used up to 043G)   
/* PCV:IGS20      OL/AL:FES2014b NONE     YN ORB:CoN CLK:BRD
*  2024  2 13  4 55  0.00000000
PG02 -11024.102059  19774.711045 -13185.833562   -486.249126               P   P
PG03   1257.048345  16463.597540 -20975.582327    189.829391               P   P
PG04  -1929.301581  26235.038135  -3067.392440    290.403075               P   P
PG05  11826.380998 -10525.355547  21166.879861   -161.617989               P   P
PG06  22565.075459  -3450.511928 -13598.152641    409.111432               P   P
PG07   9540.406086  12489.433126  21916.407412    -60.709518               P   P
PG08  -6428.942516  22810.555115  11446.063498   -166.760359               P   P
PG09   7979.413239  23576.267888   9107.403307     90.428442               P   P
PG10 -24322.646173 -10746.294998  -2587.956054     -0.111110               P   P
PG11  23787.098724 -11448.339390  -2658.073258   -574.028472               P   P
PG12    586.325642 -16727.476247 -20925.229373   -477.471699               P   P
PG13  13078.989655 -15500.505935  16827.954146    625.051510               P   P
PG14  23036.049375  13410.886708    724.096300    324.370234               P   P
PG15   3679.297956 -23571.516057  10963.240154    127.169505               P   P
PG16 -17962.434788   4186.905748  18944.792926   -363.789025               P   P
PG17  12516.023735  13505.418859 -18659.912753    717.160366               P   P
PG18 -10044.373029 -11264.340544  21882.025211   -554.419775               P   P
PG19  14813.557282   3840.265628 -21920.679251    439.940793               P   P
PG20  22250.571064  -3431.554885  14024.048271    387.696087               P   P
PG21 -14920.719757  19247.571429  -8820.918011    135.119258               P   P
PG22  23550.871391   9561.828422  -6739.329304     32.082147               P   P
PG23 -19072.385083 -16189.840955   9222.270415    155.092333               P   P
PG24  11641.148121 -20496.900106 -12234.116459   -430.859388               P   P
PG25 -11378.193684 -18416.626314 -15905.014351    488.421340               P   P
PG26 -24325.725047  -1668.313345  10811.018024    190.765395               P   P
PG27 -12889.070173  12127.261178  19389.928044     -3.572793               P   P
PG28 -21423.720003   1415.714350 -15652.020780   -129.329322               P   P
PG29  -4623.515525 -24825.627974   8013.865760   -607.081083               P   P
PG30  18723.049307   4361.558284  18563.500614   -433.259411               P   P
PG31 -24310.396895   8338.840612  -7697.315543   -227.747198               P   P
PG32 -14435.350722  -9685.113437 -19939.209675   -611.337500               P   P
PR01  -8072.253790   8147.488280 -22779.529571     77.037561               P   P
PR02   2452.128049  21274.651846 -13755.678869    -22.519939               P   P
PR03  11851.866794  22333.676362   3179.970846     94.374990               P   P
PR04  14166.585550  11338.544730  17953.860369    223.219178               P   P
PR05   9113.652291  -5848.181099  23111.850071    126.845736               P   P
PR07 -12099.667067 -22138.716435  -3900.160802     75.721598               P   P
PR08 -14298.375925 -11077.399827 -17939.172204    -74.415819               P   P
PR09   4743.159185 -10915.692699 -22555.496163    169.717613               P   P
PR11 -24438.988043  -4656.630310  -5591.764591     34.517980               P   P
PR12 -21252.218055   4568.096130  13377.612028     36.701625               P   P
PR13  -7398.285421  10137.475520  22186.581922    -44.266873               P   P
PR14  13909.572746  10279.267924  18760.238563     26.080185               P   P
PR15  24821.662107   4213.483828   4122.306345     82.257132               P   P
PR16  21416.827533  -4452.857087 -13146.240333     23.264088               P   P
PR17   2100.045242  13768.793538 -21366.805342     60.806372               P   P
PR18  12929.282571   -848.174955 -21965.293344    127.103848               P   P
PR19  17649.708801 -13293.337215 -12745.173527   -265.595140               P   P
PR20  12009.979561 -21041.908312   8067.311309   -108.151851               P   P
PR21  -2181.482877 -13495.744886  21533.726524    -76.557013               P   P
PR22 -13769.161449   1158.831260  21465.863431    107.886173               P   P
PR24 -10662.289017  21557.313927  -8493.846524    -43.717989               P   P
PE02  15308.797464  20317.209378  15104.981906    102.970863               P   P
PE03   7315.593941  27112.348380   9370.158513    -93.477654               P   P
PE04 -16042.454598 -10536.122971 -22526.437201   -326.092539               P   P
PE05  -5548.442786  27627.861101  -9052.427286   4719.565370               P   P
PE07  15395.120670 -11557.632703  22489.892526   -103.474934               P   P
PE08  15763.943093  11301.242473  22363.412278   -223.061014               P   P
PE09 -15283.606801  11447.379190 -22616.203526   -334.212831               P   P
PE10 -25916.057140   6331.197036  12821.477591   -601.555688               P   P
PE11 -26014.525552  13813.277467   2822.012089   3249.504387               P   P
PE12 -22017.598971  -1447.761194  19721.547739   -904.143527               P   P
PE13  26145.938316 -13441.310574  -3503.327993    -20.156265               P   P
PE14  15019.020755  22075.365028 -18122.313129 999999.999999               P   P
PE15  21676.246564   1792.944625 -20072.937281    -85.493090               P   P
PE18 -14300.913703  -8957.290794  17220.933860 999999.999999               P   P
PE19  -5752.467885 -28086.331095  -7367.582831   -624.974208               P   P
PE21   4207.739502 -16669.495543 -24104.876870   -578.748365               P   P
PE24 -22447.700689   2761.703133  19086.292228   -595.415004               P   P
PE25  -4641.319136  16467.807357  24149.797240      0.818018               P   P
PE26  14661.203077 -20690.239832  15283.399731    367.304228               P   P
PE27  22145.605995  -3159.911269 -19384.027453   -273.421969               P   P
PE30  26750.168696  12274.632046  -3084.729042   -902.767511               P   P
PE31 -26832.746706 -12068.852415   3282.365157    -15.870229               P   P
PE33  -3982.940043 -16052.768042  24556.229780      7.508256               P   P
PE34   4593.904785  15752.460418 -24634.957550    -94.249351               P   P
PE36 -15265.120134  20560.354136 -14826.318218   -185.216030               P   P
EOF
